[{"OBJECT_NAME":"SHENZHOU-22","OBJECT_ID":"2025-272A","EPOCH":"2026-03-13T13:18:56.691648","MEAN_MOTION":15.60878289,"ECCENTRICITY":0.00067395,"INCLINATION":41.4662,"RA_OF_ASC_NODE":184.6407,"ARG_OF_PERICENTER":297.0069,"MEAN_ANOMALY":63.0081,"EPHEMERIS_TYPE":0,"CLASSIFICATION_TYPE":"U","NORAD_CAT_ID":66645,"ELEMENT_SET_NO":999,"REV_AT_EPOCH":26752,"BSTAR":0.00035349736,"MEAN_MOTION_DOT":0.00030215,"MEAN_MOTION_DDOT":0},{"OBJECT_NAME":"SOYUZ-MS 28","OBJECT_ID":"2025-275A","EPOCH":"2026-03-13T09:14:46.936608","MEAN_MOTION":15.48625615,"ECCENTRICITY":0.00079096,"INCLINATION":51.6324,"RA_OF_ASC_NODE":54.0842,"ARG_OF_PERICENTER":188.2233,"MEAN_ANOMALY":171.8627,"EPHEMERIS_TYPE":0,"CLASSIFICATION_TYPE":"U","NORAD_CAT_ID":66664,"ELEMENT_SET_NO":999,"REV_AT_EPOCH":55452,"BSTAR":0.00019895216,"MEAN_MOTION_DOT":0.00010392,"MEAN_MOTION_DDOT":0},{"OBJECT_NAME":"DUPLEX","OBJECT_ID":"1998-067XS","EPOCH":"2026-03-13T10:31:48.367200","MEAN_MOTION":15.56488826,"ECCENTRICITY":0.00026642,"INCLINATION":51.6291,"RA_OF_ASC_NODE":50.6945,"ARG_OF_PERICENTER":127.4743,"MEAN_ANOMALY":232.6492,"EPHEMERIS_TYPE":0,"CLASSIFICATION_TYPE":"U","NORAD_CAT_ID":66906,"ELEMENT_SET_NO":999,"REV_AT_EPOCH":1571,"BSTAR":0.00042282907,"MEAN_MOTION_DOT":0.00030156,"MEAN_MOTION_DDOT":0},{"OBJECT_NAME":"ISS OBJECT XT","OBJECT_ID":"1998-067XT","EPOCH":"2026-03-13T08:07:34.392000","MEAN_MOTION":15.70505609,"ECCENTRICITY":0.0004699,"INCLINATION":51.6247,"RA_OF_ASC_NODE":47.0068,"ARG_OF_PERICENTER":104.7322,"MEAN_ANOMALY":255.4197,"EPHEMERIS_TYPE":0,"CLASSIFICATION_TYPE":"U","NORAD_CAT_ID":66907,"ELEMENT_SET_NO":999,"REV_AT_EPOCH":1575,"BSTAR":0.0013594594,"MEAN_MOTION_DOT":0.00173594,"MEAN_MOTION_DDOT":0},{"OBJECT_NAME":"ISS OBJECT XU","OBJECT_ID":"1998-067XU","EPOCH":"2026-03-13T11:07:47.046144","MEAN_MOTION":15.70686547,"ECCENTRICITY":0.00048973,"INCLINATION":51.6245,"RA_OF_ASC_NODE":46.3387,"ARG_OF_PERICENTER":107.7206,"MEAN_ANOMALY":252.4326,"EPHEMERIS_TYPE":0,"CLASSIFICATION_TYPE":"U","NORAD_CAT_ID":66908,"ELEMENT_SET_NO":999,"REV_AT_EPOCH":1577,"BSTAR":0.0013010322,"MEAN_MOTION_DOT":0.0016725,"MEAN_MOTION_DDOT":0},{"OBJECT_NAME":"SILVERSAT","OBJECT_ID":"1998-067XV","EPOCH":"2026-03-13T07:56:09.861216","MEAN_MOTION":15.73849745,"ECCENTRICITY":0.00054068,"INCLINATION":51.6245,"RA_OF_ASC_NODE":46.1985,"ARG_OF_PERICENTER":105.6574,"MEAN_ANOMALY":254.5022,"EPHEMERIS_TYPE":0,"CLASSIFICATION_TYPE":"U","NORAD_CAT_ID":66909,"ELEMENT_SET_NO":999,"REV_AT_EPOCH":1576,"BSTAR":0.0015396189,"MEAN_MOTION_DOT":0.0022821,"MEAN_MOTION_DDOT":0},{"OBJECT_NAME":"ISS OBJECT XW","OBJECT_ID":"1998-067XW","EPOCH":"2026-03-13T04:59:13.857792","MEAN_MOTION":15.69697037,"ECCENTRICITY":0.00053164,"INCLINATION":51.6244,"RA_OF_ASC_NODE":47.6269,"ARG_OF_PERICENTER":107.7849,"MEAN_ANOMALY":252.3729,"EPHEMERIS_TYPE":0,"CLASSIFICATION_TYPE":"U","NORAD_CAT_ID":66910,"ELEMENT_SET_NO":999,"REV_AT_EPOCH":1573,"BSTAR":0.0012698754,"MEAN_MOTION_DOT":0.00156438,"MEAN_MOTION_DDOT":0},{"OBJECT_NAME":"ISS OBJECT XX","OBJECT_ID":"1998-067XX","EPOCH":"2026-03-13T04:38:14.491392","MEAN_MOTION":15.77377567,"ECCENTRICITY":0.00068943,"INCLINATION":51.6209,"RA_OF_ASC_NODE":46.0092,"ARG_OF_PERICENTER":108.6914,"MEAN_ANOMALY":251.4835,"EPHEMERIS_TYPE":0,"CLASSIFICATION_TYPE":"U","NORAD_CAT_ID":66911,"ELEMENT_SET_NO":999,"REV_AT_EPOCH":1574,"BSTAR":0.001694988,"MEAN_MOTION_DOT":0.00295789,"MEAN_MOTION_DDOT":0},{"OBJECT_NAME":"ISS OBJECT XY","OBJECT_ID":"1998-067XY","EPOCH":"2026-03-13T06:53:57.243840","MEAN_MOTION":15.64420991,"ECCENTRICITY":0.00034158,"INCLINATION":51.627,"RA_OF_ASC_NODE":48.9278,"ARG_OF_PERICENTER":112.5167,"MEAN_ANOMALY":247.619,"EPHEMERIS_TYPE":0,"CLASSIFICATION_TYPE":"U","NORAD_CAT_ID":66912,"ELEMENT_SET_NO":999,"REV_AT_EPOCH":1571,"BSTAR":0.0010103006,"MEAN_MOTION_DOT":0.00099603,"MEAN_MOTION_DDOT":0},{"OBJECT_NAME":"KNACKSAT-2","OBJECT_ID":"1998-067XZ","EPOCH":"2026-03-13T04:54:49.049568","MEAN_MOTION":15.5213255,"ECCENTRICITY":0.00094795,"INCLINATION":51.6314,"RA_OF_ASC_NODE":54.3798,"ARG_OF_PERICENTER":198.5087,"MEAN_ANOMALY":161.556,"EPHEMERIS_TYPE":0,"CLASSIFICATION_TYPE":"U","NORAD_CAT_ID":67683,"ELEMENT_SET_NO":999,"REV_AT_EPOCH":533,"BSTAR":0.0006702363,"MEAN_MOTION_DOT":0.00041086,"MEAN_MOTION_DDOT":0},{"OBJECT_NAME":"GXIBA-1","OBJECT_ID":"1998-067YA","EPOCH":"2026-03-13T04:06:57.198240","MEAN_MOTION":15.54922629,"ECCENTRICITY":0.00113396,"INCLINATION":51.6303,"RA_OF_ASC_NODE":54.1588,"ARG_OF_PERICENTER":187.6359,"MEAN_ANOMALY":172.4461,"EPHEMERIS_TYPE":0,"CLASSIFICATION_TYPE":"U","NORAD_CAT_ID":67684,"ELEMENT_SET_NO":999,"REV_AT_EPOCH":533,"BSTAR":0.0011971638,"MEAN_MOTION_DOT":0.00082155,"MEAN_MOTION_DDOT":0},{"OBJECT_NAME":"CORAL","OBJECT_ID":"1998-067YB","EPOCH":"2026-03-13T07:52:34.142016","MEAN_MOTION":15.52544385,"ECCENTRICITY":0.00113848,"INCLINATION":51.6311,"RA_OF_ASC_NODE":53.7042,"ARG_OF_PERICENTER":195.2471,"MEAN_ANOMALY":164.8178,"EPHEMERIS_TYPE":0,"CLASSIFICATION_TYPE":"U","NORAD_CAT_ID":67685,"ELEMENT_SET_NO":999,"REV_AT_EPOCH":535,"BSTAR":0.00074701894,"MEAN_MOTION_DOT":0.00046607,"MEAN_MOTION_DDOT":0},{"OBJECT_NAME":"ISS OBJECT YC","OBJECT_ID":"1998-067YC","EPOCH":"2026-03-13T07:42:40.656096","MEAN_MOTION":15.53157245,"ECCENTRICITY":0.00082298,"INCLINATION":51.631,"RA_OF_ASC_NODE":53.6604,"ARG_OF_PERICENTER":163.4448,"MEAN_ANOMALY":196.6813,"EPHEMERIS_TYPE":0,"CLASSIFICATION_TYPE":"U","NORAD_CAT_ID":67686,"ELEMENT_SET_NO":999,"REV_AT_EPOCH":535,"BSTAR":0.00085087358,"MEAN_MOTION_DOT":0.00054336,"MEAN_MOTION_DDOT":0},{"OBJECT_NAME":"LEOPARD","OBJECT_ID":"1998-067YD","EPOCH":"2026-03-13T12:34:21.248256","MEAN_MOTION":15.52357443,"ECCENTRICITY":0.00080546,"INCLINATION":51.6316,"RA_OF_ASC_NODE":52.7625,"ARG_OF_PERICENTER":168.0251,"MEAN_ANOMALY":192.0932,"EPHEMERIS_TYPE":0,"CLASSIFICATION_TYPE":"U","NORAD_CAT_ID":67687,"ELEMENT_SET_NO":999,"REV_AT_EPOCH":530,"BSTAR":0.00075020449,"MEAN_MOTION_DOT":0.00046429,"MEAN_MOTION_DDOT":0},{"OBJECT_NAME":"ISS OBJECT YE","OBJECT_ID":"1998-067YE","EPOCH":"2026-03-13T07:47:10.434912","MEAN_MOTION":15.5287273,"ECCENTRICITY":0.00080835,"INCLINATION":51.6312,"RA_OF_ASC_NODE":53.6814,"ARG_OF_PERICENTER":164.18,"MEAN_ANOMALY":195.9444,"EPHEMERIS_TYPE":0,"CLASSIFICATION_TYPE":"U","NORAD_CAT_ID":67688,"ELEMENT_SET_NO":999,"REV_AT_EPOCH":527,"BSTAR":0.00079442851,"MEAN_MOTION_DOT":0.00050148,"MEAN_MOTION_DDOT":0},{"OBJECT_NAME":"CREW DRAGON 12","OBJECT_ID":"2026-031A","EPOCH":"2026-03-13T09:14:46.936608","MEAN_MOTION":15.48625615,"ECCENTRICITY":0.00079096,"INCLINATION":51.6324,"RA_OF_ASC_NODE":54.0842,"ARG_OF_PERICENTER":188.2233,"MEAN_ANOMALY":171.8627,"EPHEMERIS_TYPE":0,"CLASSIFICATION_TYPE":"U","NORAD_CAT_ID":67796,"ELEMENT_SET_NO":999,"REV_AT_EPOCH":55680,"BSTAR":0.00019895216,"MEAN_MOTION_DOT":0.00010392,"MEAN_MOTION_DDOT":0}]
